NORAD_CAT_ID,OBJECT_NAME,OBJECT_TYPE,EPOCH,MEAN_MOTION,ECCENTRICITY,INCLINATION,RA_OF_ASC_NODE,ARG_OF_PERICENTER,MEAN_ANOMALY,BSTAR,MEAN_MOTION_DOT,MEAN_MOTION_DDOT,TLE_LINE0,TLE_LINE1,TLE_LINE2,SEMIMAJOR_AXIS,PERIOD,APOGEE,PERIGEE,DECAYED
53413.0,STARLINK-4500,PAYLOAD,2024-05-18 21:19:35,15.08811684,0.0001401,53.2154,196.0855,93.455,266.6602,-1.334e-05,-5e-06,0.0,0 STARLINK-4500,1 53413U 22097AB  24139.88860467 -.00000500  00000-0 -13340-4 0  9994,2 53413  53.2154 196.0855 0001401  93.4550 266.6602 15.08811684 98551,6917.967,95.439,540.801,538.863,0.0
53413.0,STARLINK-4500,PAYLOAD,2024-05-19 03:41:09,15.087896,0.0002503,53.2173,194.8954,86.023,274.1048,-0.00049794,-8.194e-05,0.0,0 STARLINK-4500,1 53413U 22097AB  24140.15358196 -.00008194  00000-0 -49794-3 0  9995,2 53413  53.2173 194.8954 0002503  86.0230 274.1048 15.08789600 98599,6918.034,95.441,541.631,538.168,0.0
53413.0,STARLINK-4500,PAYLOAD,2024-05-19 10:02:42,15.08815247,0.000192,53.2161,193.7053,122.4312,237.6866,0.00091352,0.00014271,0.0,0 STARLINK-4500,1 53413U 22097AB  24140.41854218  .00014271  00000-0  91352-3 0  9998,2 53413  53.2161 193.7053 0001920 122.4312 237.6866 15.08815247 99121,6917.956,95.439,541.149,538.493,0.0
53413.0,STARLINK-4500,PAYLOAD,2024-05-20 03:31:56,15.08861576,0.0001311,53.2144,190.4342,84.6224,275.4918,0.0019495,0.00030893,0.0,0 STARLINK-4500,1 53413U 22097AB  24141.14717966  .00030893  00000-0  19495-2 0  9992,2 53413  53.2144 190.4342 0001311  84.6224 275.4918 15.08861576 98743,6917.814,95.436,540.586,538.773,0.0
53413.0,STARLINK-4500,PAYLOAD,2024-05-20 13:04:13,15.08906861,0.0001464,53.2167,188.6515,91.4852,268.6308,0.0017268,0.00027351,0.0,0 STARLINK-4500,1 53413U 22097AB  24141.54460136  .00027351  00000-0  17268-2 0  9991,2 53413  53.2167 188.6515 0001464  91.4852 268.6308 15.08906861 98802,6917.676,95.433,540.554,538.528,0.0
53413.0,STARLINK-4500,PAYLOAD,2024-05-21 03:22:41,15.08871191,0.0001962,53.2158,185.9742,110.8716,249.2487,0.00089633,0.00014018,0.0,0 STARLINK-4500,1 53413U 22097AB  24142.14075612  .00014018  00000-0  89633-3 0  9991,2 53413  53.2158 185.9742 0001962 110.8716 249.2487 15.08871191 98891,6917.785,95.436,541.007,538.293,0.0
53413.0,STARLINK-4500,PAYLOAD,2024-05-21 08:08:50,15.08854944,0.0001248,53.2159,185.0801,98.5017,261.6117,0.0013372,0.00021066,0.0,0 STARLINK-4500,1 53413U 22097AB  24142.33947698  .00021066  00000-0  13372-2 0  9991,2 53413  53.2159 185.0801 0001248  98.5017 261.6117 15.08854944 98921,6917.835,95.437,540.563,538.836,0.0
53413.0,STARLINK-4500,PAYLOAD,2024-05-22 03:13:28,15.08851334,0.0001907,53.2167,181.5163,134.0497,226.0652,0.0014355,0.00022639,0.0,0 STARLINK-4500,1 53413U 22097AB  24143.13435945  .00022639  00000-0  14355-2 0  9996,2 53413  53.2167 181.5163 0001907 134.0497 226.0652 15.08851334 99045,6917.846,95.437,541.03,538.392,0.0
53413.0,STARLINK-4500,PAYLOAD,2024-05-22 09:35:01,15.08836251,0.0001486,53.2166,180.3245,101.2956,258.8203,4.8308e-05,4.81e-06,0.0,0 STARLINK-4500,1 53413U 22097AB  24143.39932145  .00000481  00000-0  48308-4 0  9996,2 53413  53.2166 180.3245 0001486 101.2956 258.8203 15.08836251 99080,6917.892,95.438,540.785,538.729,0.0
53413.0,STARLINK-4500,PAYLOAD,2024-05-23 07:50:25,15.08841461,0.0001496,53.2162,176.1615,105.3694,254.7464,0.00013888,1.923e-05,0.0,0 STARLINK-4500,1 53413U 22097AB  24144.32668075  .00001923  00000-0  13888-3 0  9994,2 53413  53.2162 176.1615 0001496 105.3694 254.7464 15.08841461 99718,6917.876,95.437,540.776,538.706,0.0
53413.0,STARLINK-4500,PAYLOAD,2024-05-24 09:16:35,15.0884575,0.0001284,53.2149,171.4033,97.9364,262.1774,0.00018035,2.584e-05,0.0,0 STARLINK-4500,1 53413U 22097AB  24145.38651862  .00002584  00000-0  18035-3 0  9990,2 53413  53.2149 171.4033 0001284  97.9364 262.1774 15.08845750 99385,6917.863,95.437,540.616,538.84,0.0
53413.0,STARLINK-4500,PAYLOAD,2024-05-24 18:48:54,15.08832815,0.00013,53.2151,169.6175,135.989,224.1206,-0.00014299,-2.562e-05,0.0,0 STARLINK-4500,1 53413U 22097AB  24145.78396303 -.00002562  00000-0 -14299-3 0  9996,2 53413  53.2151 169.6175 0001300 135.9890 224.1206 15.08832815 99443,6917.902,95.438,540.667,538.868,0.0
53413.0,STARLINK-4500,PAYLOAD,2024-05-25 05:56:37,15.08824925,0.0001232,53.2145,167.5363,89.3689,270.7444,-0.00013481,-2.432e-05,0.0,0 STARLINK-4500,1 53413U 22097AB  24146.24765518 -.00002432  00000-0 -13481-3 0  9994,2 53413  53.2145 167.5363 0001232  89.3689 270.7444 15.08824925 99516,6917.926,95.439,540.644,538.939,0.0
53413.0,STARLINK-4500,PAYLOAD,2024-05-25 10:42:47,15.08817197,0.0001258,53.215,166.6485,84.4504,275.6631,-0.00015794,-2.799e-05,0.0,0 STARLINK-4500,1 53413U 22097AB  24146.44638259 -.00002799  00000-0 -15794-3 0  9992,2 53413  53.2150 166.6485 0001258  84.4504 275.6631 15.08817197100032,6917.95,95.439,540.685,538.945,0.0
53413.0,STARLINK-4500,PAYLOAD,2024-05-26 07:22:47,15.08840638,0.0001433,53.2148,162.7821,90.4538,269.6618,0.00021123,3.075e-05,0.0,0 STARLINK-4500,1 53413U 22097AB  24147.30749885  .00003075  00000-0  21123-3 0  9995,2 53413  53.2148 162.7821 0001433  90.4538 269.6618 15.08840638 99670,6917.878,95.438,540.735,538.752,0.0
53413.0,STARLINK-4500,PAYLOAD,2024-05-27 05:38:11,15.08846239,0.0001604,53.2161,158.6179,88.0708,272.0468,0.00049917,7.667e-05,0.0,0 STARLINK-4500,1 53413U 22097AB  24148.23485843  .00007667  00000-0  49917-3 0  9991,2 53413  53.2161 158.6179 0001604  88.0708 272.0468 15.08846239100304,6917.861,95.437,540.836,538.617,0.0
53413.0,STARLINK-4500,PAYLOAD,2024-05-28 05:28:57,15.08856945,0.0001727,53.2169,154.163,92.9616,267.1574,0.00010038,1.311e-05,0.0,0 STARLINK-4500,1 53413U 22097AB  24149.22844609  .00001311  00000-0  10038-3 0  9992,2 53413  53.2169 154.1630 0001727  92.9616 267.1574 15.08856945 99960,6917.829,95.436,540.888,538.499,0.0
53413.0,STARLINK-4500,PAYLOAD,2024-05-28 10:15:06,15.08856783,0.0001679,53.2173,153.2661,87.1432,272.9752,9.628e-05,1.245e-05,0.0,0 STARLINK-4500,1 53413U 22097AB  24149.42716346  .00001245  00000-0  96280-4 0  9990,2 53413  53.2173 153.2661 0001679  87.1432 272.9752 15.08856783100489,6917.829,95.436,540.856,538.533,0.0
53413.0,STARLINK-4500,PAYLOAD,2024-05-29 05:19:44,15.08845808,0.0001734,53.2165,149.6918,102.0855,258.0332,-2.4639e-05,-6.8e-06,0.0,0 STARLINK-4500,1 53413U 22097AB  24150.22204680 -.00000680  00000-0 -24639-4 0  9996,2 53413  53.2165 149.6918 0001734 102.0855 258.0332 15.08845808100117,6917.863,95.437,540.927,538.528,0.0
53413.0,STARLINK-4500,PAYLOAD,2024-05-29 06:55:07,15.08850194,0.0001718,53.2171,149.4001,77.5058,282.6127,2.0076e-05,3.2e-07,0.0,0 STARLINK-4500,1 53413U 22097AB  24150.28828420  .00000032  00000-0  20076-4 0  9996,2 53413  53.2171 149.4001 0001718  77.5058 282.6127 15.08850194100612,6917.849,95.437,540.903,538.526,0.0
53413.0,STARLINK-4500,PAYLOAD,2024-05-29 22:48:59,15.0884714,0.0001613,53.2164,146.4271,83.1699,276.9476,1.3219e-05,-7.8e-07,0.0,0 STARLINK-4500,1 53413U 22097AB  24150.95068430 -.00000078  00000-0  13219-4 0  9999,2 53413  53.2164 146.4271 0001613  83.1699 276.9476 15.08847140100719,6917.859,95.437,540.839,538.608,0.0
53413.0,STARLINK-4500,PAYLOAD,2024-05-30 06:45:54,15.08846279,0.0001621,53.2165,144.9379,95.4135,264.7042,6.3526e-05,7.23e-06,0.0,0 STARLINK-4500,1 53413U 22097AB  24151.28188233  .00000723  00000-0  63526-4 0  9992,2 53413  53.2165 144.9379 0001621  95.4135 264.7042 15.08846279100279,6917.861,95.437,540.848,538.605,0.0
53413.0,STARLINK-4500,PAYLOAD,2024-05-31 05:01:19,15.08832156,0.0001846,53.2171,140.7772,117.5634,242.5546,0.00015739,2.217e-05,0.0,0 STARLINK-4500,1 53413U 22097AB  24152.20925100  .00002217  00000-0  15739-3 0  9999,2 53413  53.2171 140.7772 0001846 117.5634 242.5546 15.08832156100414,6917.904,95.438,541.046,538.492,0.0
53413.0,STARLINK-4500,PAYLOAD,2024-05-31 08:12:05,15.08835405,0.000165,53.2167,140.1801,107.923,252.1942,8.0291e-05,9.9e-06,0.0,0 STARLINK-4500,1 53413U 22097AB  24152.34173207  .00000990  00000-0  80291-4 0  9999,2 53413  53.2167 140.1801 0001650 107.9230 252.1942 15.08835405100927,6917.894,95.438,540.901,538.618,0.0
53413.0,STARLINK-4500,PAYLOAD,2024-05-31 22:30:33,15.0884321,0.0001678,53.2178,137.5051,88.4751,271.6434,5.7617e-05,6.29e-06,0.0,0 STARLINK-4500,1 53413U 22097AB  24152.93788864  .00000629  00000-0  57617-4 0  9990,2 53413  53.2178 137.5051 0001678  88.4751 271.6434 15.08843210101013,6917.871,95.437,540.896,538.575,0.0
53413.0,STARLINK-4500,PAYLOAD,2024-06-01 04:52:05,15.08845766,0.0001606,53.2175,136.3158,88.6617,271.456,9.1087e-05,1.162e-05,0.0,0 STARLINK-4500,1 53413U 22097AB  24153.20284543  .00001162  00000-0  91087-4 0  9998,2 53413  53.2175 136.3158 0001606  88.6617 271.4560 15.08845766100564,6917.863,95.437,540.839,538.617,0.0
53413.0,STARLINK-4500,PAYLOAD,2024-06-01 06:27:28,15.08846392,0.0001598,53.2175,136.0184,88.3341,271.7835,9.4962e-05,1.224e-05,0.0,0 STARLINK-4500,1 53413U 22097AB  24153.26908480  .00001224  00000-0  94962-4 0  9991,2 53413  53.2175 136.0184 0001598  88.3341 271.7835 15.08846392101061,6917.861,95.437,540.831,538.62,0.0
53413.0,STARLINK-4500,PAYLOAD,2024-06-02 04:42:53,15.08836589,0.0001521,53.2169,131.8556,92.5848,267.5318,0.00011303,1.511e-05,0.0,0 STARLINK-4500,1 53413U 22097AB  24154.19645209  .00001511  00000-0  11303-3 0  9997,2 53413  53.2169 131.8556 0001521  92.5848 267.5318 15.08836589100712,6917.891,95.438,540.808,538.704,0.0
53413.0,STARLINK-4500,PAYLOAD,2024-06-02 07:53:39,15.08840347,0.0001571,53.2173,131.2608,92.2091,267.9081,0.00011846,1.598e-05,0.0,0 STARLINK-4500,1 53413U 22097AB  24154.32893006  .00001598  00000-0  11846-3 0  9999,2 53413  53.2173 131.2608 0001571  92.2091 267.9081 15.08840347101226,6917.879,95.438,540.831,538.658,0.0
53413.0,STARLINK-4500,PAYLOAD,2024-06-03 04:33:39,15.08856996,0.0001578,53.2174,127.3948,94.1362,265.9811,0.00017653,2.524e-05,0.0,0 STARLINK-4500,1 53413U 22097AB  24155.19003597  .00002524  00000-0  17653-3 0  9995,2 53413  53.2174 127.3948 0001578  94.1362 265.9811 15.08856996100864,6917.828,95.436,540.785,538.602,0.0
